{
  "fetched_at": "2026-06-18T02:35:02.469536+00:00",
  "satellites": {
    "57166": {
      "name": "Meteor M2-3",
      "tle_line1": "1 57166U 23091A   26168.87135682 -.00000096  00000+0 -23177-4 0  9993",
      "tle_line2": "2 57166  98.6099 223.8356 0004342 153.9499 206.1899 14.24046768154614"
    },
    "59051": {
      "name": "Meteor M2-4",
      "tle_line1": "1 59051U 24039A   26168.88685377  .00000010  00000+0  23925-4 0  9998",
      "tle_line2": "2 59051  98.7010 128.1761 0007332 159.0156 201.1324 14.22429617119366"
    },
    "38771": {
      "name": "MetOp-B",
      "tle_line1": "1 38771U 12049A   26168.82314677  .00000079  00000+0  55884-4 0  9992",
      "tle_line2": "2 38771  98.6504 220.3097 0002197  18.1455 341.9801 14.21432878713351"
    },
    "43689": {
      "name": "MetOp-C",
      "tle_line1": "1 43689U 18087A   26168.77192110  .00000088  00000+0  60255-4 0  9992",
      "tle_line2": "2 43689  98.6645 228.3649 0001785 128.7330 231.4007 14.21512296394915"
    },
    "60543": {
      "name": "Arctic Weather Satellite",
      "tle_line1": "1 60543U 24149CD  26168.75815235  .00000656  00000+0  73938-4 0  9997",
      "tle_line2": "2 60543  97.6801 239.2076 0003658 103.5111 256.6514 14.89807353 99380"
    }
  }
}